FENGYUN 1C DEB          
1 31056U 99025BFA 17346.36386841  .00000102  00000-0  80448-4 0  9991
2 31056  98.7751  27.6725 0027153  24.2384  38.9497 14.11164239556697
